1 26360U 00025A   20355.95861328 -.00000024  00000-0  00000-0 0  9998
2 26360  53.6491 101.4123 0057974 162.4688 214.7872  2.00564114151074
1 26360U 00025A   20356.44763731 -.00000027  00000-0  00000-0 0  9995
2 26360  53.6494 101.3920 0057978 162.5013 207.8582  2.00564116151082
1 26360U 00025A   20356.95009042 -.00000029  00000-0  00000-0 0  9991
2 26360  53.6497 101.3711 0057980 162.5337 210.6259  2.00564118151091
1 26360U 00025A   20357.34430719 -.00000032  00000-0  00000-0 0  9998
2 26360  53.6499 101.3547 0057982 162.5597 135.2470  2.00564123151093
1 26360U 00025A   20358.41849145 -.00000038  00000-0  00000-0 0  9990
2 26360  53.6506 101.3100 0057982 162.6296 190.8003  2.00564132151116
1 26360U 00025A   20359.54418840 -.00000044  00000-0  00000-0 0  9996
2 26360  53.6513 101.2632 0057985 162.6967 283.5514  2.00564129151147
1 26360U 00025A   20360.48365753 -.00000046  00000-0  00000-0 0  9997
2 26360  53.6519 101.2242 0057988 162.7517 241.8471  2.00564121151168
1 26360U 00025A   20360.55497929 -.00000046  00000-0  00000-0 0  9996
2 26360  53.6519 101.2212 0057989 162.7561 293.3411  2.00564120151160
1 26360U 00025A   20361.49827985 -.00000045  00000-0  00000-0 0  9998
2 26360  53.6525 101.1820 0057993 162.8104 254.4040  2.00564109151185
1 26360U 00025A   20361.88789578 -.00000045  00000-0  00000-0 0  9996
2 26360  53.6527 101.1658 0057994 162.8349 175.7047  2.00564105151186
1 26360U 00025A   20362.57515711 -.00000042  00000-0  00000-0 0  9996
2 26360  53.6531 101.1373 0058000 162.8768 311.9049  2.00564093151204
1 26360U 00025A   20363.16371218 -.00000039  00000-0  00000-0 0  9990
2 26360  53.6535 101.1128 0058004 162.9143  16.8379  2.00564077151218
1 26360U 00025A   20363.52876010 -.00000036  00000-0  00000-0 0  9997
2 26360  53.6537 101.0976 0058006 162.9359 280.4020  2.00564071151228
1 26360U 00025A   20364.53581821 -.00000029  00000-0  00000-0 0  9994
2 26360  53.6543 101.0558 0058012 163.0007 287.4910  2.00564049151242
1 26360U 00025A   20364.83930535 -.00000027  00000-0  00000-0 0  9995
2 26360  53.6545 101.0431 0058010 163.0207 146.6061  2.00564042151240
1 26360U 00025A   20365.55344259 -.00000021  00000-0  00000-0 0  9991
2 26360  53.6549 101.0134 0058014 163.0701 302.2047  2.00564021151260
1 26360U 00025A   20365.85157081 -.00000019  00000-0  00000-0 0  9996
2 26360  53.6551 101.0010 0058013 163.0891 157.4515  2.00564014151267
1 26360U 00025A   20366.56635803 -.00000014  00000-0  00000-0 0  9993
2 26360  53.6556 100.9713 0058016 163.1371 313.5207  2.00563988151281
1 26360U 00025A   20366.79682696 -.00000013  00000-0  00000-0 0  9999
2 26360  53.6557 100.9617 0058015 163.1512 119.9183  2.00563981151285
